[{"OBJECT_NAME":"STARLETTE","OBJECT_ID":"1975-010A","EPOCH":"2026-04-27T06:27:12.475296","MEAN_MOTION":13.82349707,"ECCENTRICITY":0.0205658,"INCLINATION":49.8255,"RA_OF_ASC_NODE":305.578,"ARG_OF_PERICENTER":254.8251,"MEAN_ANOMALY":102.9815,"EPHEMERIS_TYPE":0,"CLASSIFICATION_TYPE":"U","NORAD_CAT_ID":7646,"ELEMENT_SET_NO":999,"REV_AT_EPOCH":58749,"BSTAR":1.2955511e-5,"MEAN_MOTION_DOT":-1.24e-6,"MEAN_MOTION_DDOT":0},{"OBJECT_NAME":"LAGEOS 1","OBJECT_ID":"1976-039A","EPOCH":"2026-04-27T04:35:46.493376","MEAN_MOTION":6.38664747,"ECCENTRICITY":0.00446727,"INCLINATION":109.8064,"RA_OF_ASC_NODE":161.8865,"ARG_OF_PERICENTER":313.1972,"MEAN_ANOMALY":67.1357,"EPHEMERIS_TYPE":0,"CLASSIFICATION_TYPE":"U","NORAD_CAT_ID":8820,"ELEMENT_SET_NO":999,"REV_AT_EPOCH":90988,"BSTAR":0,"MEAN_MOTION_DOT":8.0e-8,"MEAN_MOTION_DDOT":0},{"OBJECT_NAME":"AJISAI (EGS)","OBJECT_ID":"1986-061A","EPOCH":"2026-04-27T07:09:12.498048","MEAN_MOTION":12.44516023,"ECCENTRICITY":0.00114283,"INCLINATION":50.0098,"RA_OF_ASC_NODE":303.8796,"ARG_OF_PERICENTER":51.6327,"MEAN_ANOMALY":3.68,"EPHEMERIS_TYPE":0,"CLASSIFICATION_TYPE":"U","NORAD_CAT_ID":16908,"ELEMENT_SET_NO":999,"REV_AT_EPOCH":47405,"BSTAR":0.00013999851,"MEAN_MOTION_DOT":-7.8e-7,"MEAN_MOTION_DDOT":0},{"OBJECT_NAME":"COSMOS 1989 (ETALON 1)","OBJECT_ID":"1989-001C","EPOCH":"2026-04-27T06:16:28.786656","MEAN_MOTION":2.13155967,"ECCENTRICITY":0.00233558,"INCLINATION":64.9179,"RA_OF_ASC_NODE":73.936,"ARG_OF_PERICENTER":217.6557,"MEAN_ANOMALY":268.9736,"EPHEMERIS_TYPE":0,"CLASSIFICATION_TYPE":"U","NORAD_CAT_ID":19751,"ELEMENT_SET_NO":999,"REV_AT_EPOCH":29028,"BSTAR":0,"MEAN_MOTION_DOT":-7.0e-8,"MEAN_MOTION_DDOT":0},{"OBJECT_NAME":"COSMOS 2024 (ETALON 2)","OBJECT_ID":"1989-039C","EPOCH":"2026-04-27T03:23:00.895776","MEAN_MOTION":2.13204574,"ECCENTRICITY":0.0020542,"INCLINATION":64.9662,"RA_OF_ASC_NODE":312.2941,"ARG_OF_PERICENTER":212.8288,"MEAN_ANOMALY":330.1171,"EPHEMERIS_TYPE":0,"CLASSIFICATION_TYPE":"U","NORAD_CAT_ID":20026,"ELEMENT_SET_NO":999,"REV_AT_EPOCH":28741,"BSTAR":0,"MEAN_MOTION_DOT":-2.9e-7,"MEAN_MOTION_DDOT":0},{"OBJECT_NAME":"LAGEOS 2","OBJECT_ID":"1992-070B","EPOCH":"2026-04-21T05:19:35.882976","MEAN_MOTION":6.47293633,"ECCENTRICITY":0.0137666,"INCLINATION":52.6637,"RA_OF_ASC_NODE":302.6665,"ARG_OF_PERICENTER":162.3863,"MEAN_ANOMALY":358.4565,"EPHEMERIS_TYPE":0,"CLASSIFICATION_TYPE":"U","NORAD_CAT_ID":22195,"ELEMENT_SET_NO":999,"REV_AT_EPOCH":79173,"BSTAR":0,"MEAN_MOTION_DOT":-9.0e-8,"MEAN_MOTION_DDOT":0},{"OBJECT_NAME":"STELLA","OBJECT_ID":"1993-061B","EPOCH":"2026-04-27T07:32:14.531712","MEAN_MOTION":14.27469002,"ECCENTRICITY":0.0006917,"INCLINATION":98.7756,"RA_OF_ASC_NODE":181.3742,"ARG_OF_PERICENTER":33.7604,"MEAN_ANOMALY":79.6292,"EPHEMERIS_TYPE":0,"CLASSIFICATION_TYPE":"U","NORAD_CAT_ID":22824,"ELEMENT_SET_NO":999,"REV_AT_EPOCH":69751,"BSTAR":7.73122e-6,"MEAN_MOTION_DOT":-2.6e-7,"MEAN_MOTION_DDOT":0},{"OBJECT_NAME":"LARETS","OBJECT_ID":"2003-042F","EPOCH":"2026-04-27T06:15:49.229280","MEAN_MOTION":14.63859698,"ECCENTRICITY":0.00120188,"INCLINATION":98.4101,"RA_OF_ASC_NODE":278.4125,"ARG_OF_PERICENTER":189.5229,"MEAN_ANOMALY":170.5747,"EPHEMERIS_TYPE":0,"CLASSIFICATION_TYPE":"U","NORAD_CAT_ID":27944,"ELEMENT_SET_NO":999,"REV_AT_EPOCH":20591,"BSTAR":2.4454057e-5,"MEAN_MOTION_DOT":7.7e-7,"MEAN_MOTION_DDOT":0},{"OBJECT_NAME":"LARES","OBJECT_ID":"2012-006A","EPOCH":"2026-04-27T06:46:12.559584","MEAN_MOTION":12.54931947,"ECCENTRICITY":0.00063583,"INCLINATION":69.493,"RA_OF_ASC_NODE":19.1967,"ARG_OF_PERICENTER":89.9158,"MEAN_ANOMALY":270.2597,"EPHEMERIS_TYPE":0,"CLASSIFICATION_TYPE":"U","NORAD_CAT_ID":38077,"ELEMENT_SET_NO":999,"REV_AT_EPOCH":65068,"BSTAR":1.653686e-6,"MEAN_MOTION_DOT":-3.8e-7,"MEAN_MOTION_DDOT":0},{"OBJECT_NAME":"LARES-2","OBJECT_ID":"2022-080A","EPOCH":"2026-04-24T22:52:30.311904","MEAN_MOTION":6.38965121,"ECCENTRICITY":0.00053586,"INCLINATION":70.1721,"RA_OF_ASC_NODE":323.5864,"ARG_OF_PERICENTER":346.5295,"MEAN_ANOMALY":13.5246,"EPHEMERIS_TYPE":0,"CLASSIFICATION_TYPE":"U","NORAD_CAT_ID":53105,"ELEMENT_SET_NO":999,"REV_AT_EPOCH":8826,"BSTAR":0,"MEAN_MOTION_DOT":-1.0e-7,"MEAN_MOTION_DDOT":0}]
